#aV2022 12 15  0  0  0.00000000     288 DD+AD WGS84 FIT  NGA
## 2240 345600.00000000   300.00000000 59928 0.0000000000000
+   31     1  2  3  4  5  6  7  8  9 10 11 12 13 14 15 16 17
+         18 19 20 21 22 23 24 25 26 27 29 30 31 32  0  0  0
+          0  0  0  0  0  0  0  0  0  0  0  0  0  0  0  0  0
+          0  0  0  0  0  0  0  0  0  0  0  0  0  0  0  0  0
+          0  0  0  0  0  0  0  0  0  0  0  0  0  0  0  0  0
++         2  2  2  2  2  2  2  2  2  2  2  2  2  2  2  2  2
++         2  2  2  2  2  2  2  2  2  2  2  2  2  2  0  0  0
++         0  0  0  0  0  0  0  0  0  0  0  0  0  0  0  0  0
++         0  0  0  0  0  0  0  0  0  0  0  0  0  0  0  0  0
++         0  0  0  0  0  0  0  0  0  0  0  0  0  0  0  0  0
%c cc cc ccc ccc cccc cccc cccc cccc ccccc ccccc ccccc ccccc
%c cc cc ccc ccc cccc cccc cccc cccc ccccc ccccc ccccc ccccc
%f  0.0000000  0.000000000  0.00000000000  0.000000000000000
%f  0.0000000  0.000000000  0.00000000000  0.000000000000000
%i    0    0    0    0      0      0      0      0         0
%i    0    0    0    0      0      0      0      0         0
/*      NGA, ST. LOUIS,MO.                                  
/*   EPHEMERIS COMPUTED FROM 2 DAYS OF DATA                 
/*   EPOCHA v8 SMOOTHER                                     
/*   G2139 IERS2010 SATIGS SATAPC                           
*  2022 12 15 12 10  0.00000000
P  1 -14001.663200  21634.162754   5313.044198    237.443738                    
V  1   1070.694348  -7443.423458  31642.759036     -0.051899                    
P  2  10539.156538 -24294.290194  -2547.202499   -632.899233                    
V  2   1006.867822   4591.493408 -31538.148531      0.019922                    
P  3 -17734.914753  12318.175073 -15516.795933   -375.254231                    
V  3 -19558.654465    293.980476  22871.007916     -0.000264                    
P  4  -7008.654810  15273.141919 -20541.430069    -68.110631                    
V  4 -15345.664132 -21148.193511 -10591.333712      0.071497                    
P  5  25843.518881  -5696.013264   2742.206181   -108.158859                    
V  5   4017.521845   2056.115522 -31496.624132     -0.014635                    
P  6   9862.935030  12212.173286 -21339.566003    540.551088                    
V  6 -11852.102215  24490.293633   8588.075596      0.076341                    
P  7  -4316.704336  24589.261352   8725.841972    274.064780                    
V  7  -7317.090883   8387.483710 -29134.248942     -0.054241                    
P  8 -15147.948887   4675.073917  21315.387142    -98.763346                    
V  8 -16073.618403 -21841.012994  -6247.784667     -0.018623                    
P  9   3837.274557  22017.693624 -14396.381469   -253.077838                    
V  9 -12738.937052 -13158.922124 -23696.583754      0.061172                    
P 10 -13938.592769 -11828.288608  19544.359791    -16.195257                    
V 10  24098.245534  -3383.181666  14959.013003     -0.016476                    
P 11  16500.029744   -554.581963 -20788.690276    -57.500163                    
V 11 -11337.442584  23873.933264  -9665.856729     -0.074173                    
P 12  19223.345169 -10888.013637 -14939.169074   -316.207705                    
V 12  18570.529363   1338.395225  23449.071349     -0.045238                    
P 13  17401.968437   4213.668505  19503.680218    442.341279                    
V 13  10787.752011  22650.426516 -14205.153886      0.065785                    
P 14  11148.955127  13551.701948  19977.031543    -67.732997                    
V 14 -25220.368704   2829.214337  12042.614575      0.063844                    
P 15  14661.705834  -6861.387771  20645.440181     -3.896081                    
V 15  18352.957962  20253.894928  -5891.964037      0.032367                    
P 16 -26802.998851   -415.121046  -1074.933654   -526.089827                    
V 16    972.986104  -2223.893068 -31550.645916      0.005748                    
P 17  12343.675956  23328.246013   2966.066842    686.098366                    
V 17  -3706.955305  -1478.653521  31861.705113      0.029399                    
P 18   3300.740692 -24013.356776  10693.622053    -59.972243                    
V 18   7835.735853 -11344.238866 -28037.261244     -0.146325                    
P 19  17432.889075  18183.644799  -9063.994626    250.823095                    
V 19   3844.210773  10571.561293  29092.745378      0.050781                    
P 20  24617.241795    530.557050  -9639.931245    463.437004                    
V 20 -11127.277865   6234.498333 -28224.815804     -0.024927                    
P 21 -16127.892643  15355.257113  14460.013486    153.786826                    
V 21   3545.292754 -17472.729862  24260.947623     -0.009215                    
P 22 -18234.485776 -16034.852055 -10543.345131    385.200451                    
V 22  -5128.503122 -13205.781518  27665.160431      0.078294                    
P 23  -1508.092224 -14900.049435  21930.258538      0.137148                    
V 23  27600.849739  -3492.562206   -611.750642      0.006644                    
P 24  14431.139833 -19705.543597   9555.927013     14.685993                    
V 24   -766.077385  13307.299796  28034.477280     -0.173692                    
P 25   8826.046467 -15274.716599 -20071.854607    402.245925                    
V 25  24919.331641  -1505.004843  12566.253410      0.035346                    
P 26 -23060.867511  -5471.477105 -12420.027395    238.435468                    
V 26  14902.698003  -5168.201979 -25264.554709      0.008382                    
P 27 -19389.648534  -7350.176475  16603.922550    152.593464                    
V 27 -11329.305311 -18128.587988 -20576.639306     -0.099678                    
P 29   -289.789384 -21159.701492 -16043.326172   -574.171085                    
V 29  11937.514953  16477.883264 -22082.349172     -0.025837                    
P 30   5161.446969  19355.276450  17404.664238   -535.352006                    
V 30 -11336.736024  19108.069959 -18235.385517      0.006615                    
P 31 -11721.759657 -10666.681777 -21417.374086   -203.337100                    
V 31  12249.466447 -23968.783835   5727.987457     -0.011735                    
P 32 -15763.567133 -21513.798806     33.455389   -330.458496                    
V 32   2104.501880  -1720.350485  31578.199142     -0.131931                    
EOF
